NORAD_CAT_ID,OBJECT_NAME,OBJECT_TYPE,EPOCH,MEAN_MOTION,ECCENTRICITY,INCLINATION,RA_OF_ASC_NODE,ARG_OF_PERICENTER,MEAN_ANOMALY,BSTAR,MEAN_MOTION_DOT,MEAN_MOTION_DDOT,TLE_LINE0,TLE_LINE1,TLE_LINE2,SEMIMAJOR_AXIS,PERIOD,APOGEE,PERIGEE,DECAYED
52636.0,STARLINK-3967,PAYLOAD,2023-01-06 10:20:10,15.08821616,0.0002205,53.2206,68.7451,21.4206,338.6878,-0.00023872,-4.084e-05,0.0,0 STARLINK-3967,1 52636U 22052AQ  23006.43067258 -.00004084  00000-0 -23872-3 0  9992,2 52636  53.2206  68.7451 0002205  21.4206 338.6878 15.08821616 36513,6917.937,95.439,541.327,538.276,0.0
52636.0,STARLINK-3967,PAYLOAD,2023-01-06 13:30:56,15.08822187,0.0002178,53.2204,68.1503,26.5034,333.6069,-0.00022701,-3.898e-05,0.0,0 STARLINK-3967,1 52636U 22052AQ  23006.56315261 -.00003898  00000-0 -22701-3 0  9998,2 52636  53.2204  68.1503 0002178  26.5034 333.6069 15.08822187 36158,6917.935,95.439,541.307,538.293,0.0
52636.0,STARLINK-3967,PAYLOAD,2023-01-06 23:03:14,15.08836596,0.0002753,53.2211,66.3717,16.3305,343.7775,-0.00018027,-3.156e-05,0.0,0 STARLINK-3967,1 52636U 22052AQ  23006.96058370 -.00003156  00000-0 -18027-3 0  9990,2 52636  53.2211  66.3717 0002753  16.3305 343.7775 15.08836596 36593,6917.891,95.438,541.66,537.851,0.0
52636.0,STARLINK-3967,PAYLOAD,2023-01-07 10:10:55,15.0885047,0.0002591,53.2193,64.2882,25.3159,334.7959,9.1406e-06,-1.43e-06,0.0,0 STARLINK-3967,1 52636U 22052AQ  23007.42424898 -.00000143  00000-0  91406-5 0  9990,2 52636  53.2193  64.2882 0002591  25.3159 334.7959 15.08850470 36668,6917.848000000001,95.437,541.506,537.9209999999998,0.0
52636.0,STARLINK-3967,PAYLOAD,2023-01-07 13:21:41,15.0885057,0.000255,53.2192,63.6932,26.6251,333.4872,-3.9958e-05,-9.25e-06,0.0,0 STARLINK-3967,1 52636U 22052AQ  23007.55672948 -.00000925  00000-0 -39958-4 0  9997,2 52636  53.2192  63.6932 0002550  26.6251 333.4872 15.08850570 36300,6917.848000000001,95.437,541.477,537.9490000000002,0.0
52636.0,STARLINK-3967,PAYLOAD,2023-01-08 03:40:11,15.08818364,0.0002467,53.2172,61.0144,32.1211,327.9931,-1.965e-05,-6.01e-06,0.0,0 STARLINK-3967,1 52636U 22052AQ  23008.15291241 -.00000601  00000-0 -19650-4 0  9995,2 52636  53.2172  61.0144 0002467  32.1211 327.9931 15.08818364 36770,6917.946999999999,95.439,541.518,538.105,0.0
52636.0,STARLINK-3967,PAYLOAD,2023-01-08 13:12:30,15.08812601,0.0002839,53.2179,59.2335,23.9126,336.1997,0.00020849,3.029e-05,0.0,0 STARLINK-3967,1 52636U 22052AQ  23008.55035607  .00003029  00000-0  20849-3 0  9997,2 52636  53.2179  59.2335 0002839  23.9126 336.1997 15.08812601 36451,6917.964,95.439,541.793,537.865,0.0
52636.0,STARLINK-3967,PAYLOAD,2023-01-08 22:44:48,15.08839535,0.0002995,53.219,57.4508,20.8473,339.2641,0.00018526,2.661e-05,0.0,0 STARLINK-3967,1 52636U 22052AQ  23008.94778388  .00002661  00000-0  18526-3 0  9990,2 52636  53.2190  57.4508 0002995  20.8473 339.2641 15.08839535 36893,6917.882,95.438,541.819,537.675,0.0
52636.0,STARLINK-3967,PAYLOAD,2023-01-09 09:52:30,15.08842907,0.0002357,53.2196,55.3658,12.9217,347.1835,7.6362e-05,9.27e-06,0.0,0 STARLINK-3967,1 52636U 22052AQ  23009.41146378  .00000927  00000-0  76362-4 0  9997,2 52636  53.2196  55.3658 0002357  12.9217 347.1835 15.08842907 36588,6917.871999999999,95.437,541.367,538.106,0.0
52636.0,STARLINK-3967,PAYLOAD,2023-01-10 01:46:22,15.08835141,0.0002864,53.2188,52.3954,24.6945,335.4184,0.00022349,3.27e-05,0.0,0 STARLINK-3967,1 52636U 22052AQ  23010.07386869  .00003270  00000-0  22349-3 0  9991,2 52636  53.2188  52.3954 0002864  24.6945 335.4184 15.08835141 37069,6917.895,95.438,541.742,537.779,0.0
52636.0,STARLINK-3967,PAYLOAD,2023-01-10 08:07:55,15.08832495,0.0003121,53.2195,51.2055,13.4519,346.6555,0.00014298,1.987e-05,0.0,0 STARLINK-3967,1 52636U 22052AQ  23010.33883320  .00001987  00000-0  14298-3 0  9991,2 52636  53.2195  51.2055 0003121  13.4519 346.6555 15.08832495 36724,6917.903,95.438,541.927,537.609,0.0
52636.0,STARLINK-3967,PAYLOAD,2023-01-10 19:15:37,15.08839456,0.0002861,53.2195,49.1241,18.9373,341.1726,8.0983e-06,-1.6e-06,0.0,0 STARLINK-3967,1 52636U 22052AQ  23010.80251241 -.00000160  00000-0  80983-5 0  9993,2 52636  53.2195  49.1241 0002861  18.9373 341.1726 15.08839456 36796,6917.882,95.438,541.726,537.768,0.0
52636.0,STARLINK-3967,PAYLOAD,2023-01-11 09:34:03,15.08865172,0.0002943,53.2191,46.4479,21.8309,338.2808,0.00024197,3.567e-05,0.0,0 STARLINK-3967,1 52636U 22052AQ  23011.39864908  .00003567  00000-0  24197-3 0  9994,2 52636  53.2191  46.4479 0002943  21.8309 338.2808 15.08865172 37263,6917.803000000001,95.436,541.7040000000002,537.633,0.0
52636.0,STARLINK-3967,PAYLOAD,2023-01-11 19:06:23,15.0884253,0.000284,53.2186,44.6634,23.9321,336.1803,-2.5058000000000006e-05,-6.87e-06,0.0,0 STARLINK-3967,1 52636U 22052AQ  23011.79610249 -.00000687  00000-0 -25058-4 0  9995,2 52636  53.2186  44.6634 0002840  23.9321 336.1803 15.08842530 37325,6917.873000000001,95.437,541.702,537.773,0.0
52636.0,STARLINK-3967,PAYLOAD,2023-01-11 22:17:10,15.08814293,0.0002697,53.2186,44.0685,23.4386,336.6728,-0.00033856,-5.669e-05,0.0,0 STARLINK-3967,1 52636U 22052AQ  23011.92859671 -.00005669  00000-0 -33856-3 0  9993,2 52636  53.2186  44.0685 0002697  23.4386 336.6728 15.08814293 37349,6917.959,95.439,541.69,537.9580000000002,0.0
52636.0,STARLINK-3967,PAYLOAD,2023-01-12 18:57:11,15.08827974,0.0002686,53.2179,40.2034,30.9663,329.1488,-3.4838e-05,-8.43e-06,0.0,0 STARLINK-3967,1 52636U 22052AQ  23012.78971801 -.00000843  00000-0 -34838-4 0  9999,2 52636  53.2179  40.2034 0002686  30.9663 329.1488 15.08827974 37470,6917.917,95.438,541.64,537.924,0.0
52636.0,STARLINK-3967,PAYLOAD,2023-01-13 09:15:40,15.08848911,0.0002549,53.2174,37.5272,34.336,325.7797,0.0015868,0.00025063,0.0,0 STARLINK-3967,1 52636U 22052AQ  23013.38588364  .00025063  00000-0  15868-2 0  9993,2 52636  53.2174  37.5272 0002549  34.3360 325.7797 15.08848911 37567,6917.853,95.437,541.482,537.955,0.0
52636.0,STARLINK-3967,PAYLOAD,2023-01-13 18:47:59,15.0885084,0.0002521,53.2177,35.7419,39.6893,320.4283,0.0012685,0.00019964,0.0,0 STARLINK-3967,1 52636U 22052AQ  23013.78332465  .00019964  00000-0  12685-2 0  9993,2 52636  53.2177  35.7419 0002521  39.6893 320.4283 15.08850840 37625,6917.847,95.437,541.456,537.9680000000001,0.0
52636.0,STARLINK-3967,PAYLOAD,2023-01-14 01:09:31,15.08848657,0.0002512,53.2174,34.554,40.7489,319.369,0.00087964,0.00013743,0.0,0 STARLINK-3967,1 52636U 22052AQ  23014.04828508  .00013743  00000-0  87964-3 0  9993,2 52636  53.2174  34.5540 0002512  40.7489 319.3690 15.08848657 37664,6917.854,95.437,541.457,537.981,0.0
52636.0,STARLINK-3967,PAYLOAD,2023-01-14 18:38:46,15.08848332,0.0002396999999999,53.2161,31.2821,40.4012,319.7158,0.00046499,7.122e-05,0.0,0 STARLINK-3967,1 52636U 22052AQ  23014.77692244  .00007122  00000-0  46499-3 0  9991,2 52636  53.2161  31.2821 0002397  40.4012 319.7158 15.08848332 37771,6917.855,95.437,541.378,538.062,0.0
52636.0,STARLINK-3967,PAYLOAD,2023-01-15 01:00:18,15.08844689,0.0002463999999999,53.2173,30.0924,50.4667,309.6543,0.0003202,4.812e-05,0.0,0 STARLINK-3967,1 52636U 22052AQ  23015.04188581  .00004812  00000-0  32020-3 0  9994,2 52636  53.2173  30.0924 0002464  50.4667 309.6543 15.08844689 37819,6917.866,95.437,541.436,538.026,0.0
52636.0,STARLINK-3967,PAYLOAD,2023-01-15 07:21:51,15.08848633,0.0002435999999999,53.2174,28.903,53.2209,306.9006,0.00064753,0.00010035,0.0,0 STARLINK-3967,1 52636U 22052AQ  23015.30684551  .00010035  00000-0  64753-3 0  9993,2 52636  53.2174  28.9030 0002436  53.2209 306.9006 15.08848633 37475,6917.854,95.437,541.404,538.034,0.0
52636.0,STARLINK-3967,PAYLOAD,2023-01-16 07:12:37,15.0887964,0.0002105,53.2184,24.4421,55.6993,304.4199,0.0014925999999999,0.00023573,0.0,0 STARLINK-3967,1 52636U 22052AQ  23016.30043689  .00023573  00000-0  14926-2 0  9992,2 52636  53.2184  24.4421 0002105  55.6993 304.4199 15.08879640 38008,6917.759,95.435,541.08,538.168,0.0
52636.0,STARLINK-3967,PAYLOAD,2023-01-17 00:41:51,15.08868317,0.0001833,53.2181,21.1711,62.6317,297.4862,0.00065951,0.00010232,0.0,0 STARLINK-3967,1 52636U 22052AQ  23017.02907100  .00010232  00000-0  65951-3 0  9992,2 52636  53.2181  21.1711 0001833  62.6317 297.4862 15.08868317 38115,6917.794,95.436,540.927,538.391,0.0
52636.0,STARLINK-3967,PAYLOAD,2023-01-17 07:03:24,15.08861277,0.0001659,53.218,19.9821,56.0218,304.0931,0.00096855,0.00015169,0.0,0 STARLINK-3967,1 52636U 22052AQ  23017.29402885  .00015169  00000-0  96855-3 0  9992,2 52636  53.2180  19.9821 0001659  56.0218 304.0931 15.08861277 38158,6917.815,95.436,540.828,538.533,0.0
52636.0,STARLINK-3967,PAYLOAD,2023-01-17 16:35:42,15.08844626,0.0002465,53.2184,18.1956,68.5143,291.6112,0.00036421,5.514e-05,0.0,0 STARLINK-3967,1 52636U 22052AQ  23017.69146952  .00005514  00000-0  36421-3 0  9992,2 52636  53.2184  18.1956 0002465  68.5143 291.6112 15.08844626 38211,6917.866,95.437,541.437,538.026,0.0
52636.0,STARLINK-3967,PAYLOAD,2023-01-18 03:43:25,15.08830337,0.000231,53.2196,16.12,95.3544,264.7712,0.0004154,6.327e-05,0.0,0 STARLINK-3967,1 52636U 22052AQ  23018.15515650  .00006327  00000-0  41540-3 0  9990,2 52636  53.2196  16.1200 0002310  95.3544 264.7712 15.08830337 38284,6917.91,95.438,541.373,538.177,0.0
52636.0,STARLINK-3967,PAYLOAD,2023-01-18 06:54:11,15.08845895,0.0002238,53.2191,15.5259,94.9206,265.2041,0.0011855,0.00018633,0.0,0 STARLINK-3967,1 52636U 22052AQ  23018.28763559  .00018633  00000-0  11855-2 0  9995,2 52636  53.2191  15.5259 0002238  94.9206 265.2041 15.08845895 38304,6917.861999999999,95.437,541.276,538.179,0.0
52636.0,STARLINK-3967,PAYLOAD,2023-01-18 16:26:30,15.08844979,0.0001745,53.2174,13.7387,85.3747,274.7444,0.0011658,0.00018317,0.0,0 STARLINK-3967,1 52636U 22052AQ  23018.68507749  .00018317  00000-0  11658-2 0  9996,2 52636  53.2174  13.7387 0001745  85.3747 274.7444 15.08844979 38363,6917.865,95.437,540.937,538.523,0.0
